[{"CCSDS_OMM_VERS":"2.0","COMMENT":"GENERATED VIA SPACE-TRACK.ORG API","CREATION_DATE":"2022-12-08T18:21:51","ORIGINATOR":"18 SPCS","OBJECT_NAME":"GARUDA 1","OBJECT_ID":"2000-011A","CENTER_NAME":"EARTH","REF_FRAME":"TEME","TIME_SYSTEM":"UTC","MEAN_ELEMENT_THEORY":"SGP4","EPOCH":"2022-12-08T01:23:42.828576","MEAN_MOTION":"0.99922111","ECCENTRICITY":"0.00016050","INCLINATION":"6.4533","RA_OF_ASC_NODE":"79.6718","ARG_OF_PERICENTER":"179.4197","MEAN_ANOMALY":"189.2938","EPHEMERIS_TYPE":"0","CLASSIFICATION_TYPE":"U","NORAD_CAT_ID":"26089","ELEMENT_SET_NO":"999","REV_AT_EPOCH":"2880","BSTAR":"0.00000000000000","MEAN_MOTION_DOT":"-0.00000126","MEAN_MOTION_DDOT":"0.0000000000000","SEMIMAJOR_AXIS":"42263.044","PERIOD":"1441.122","APOAPSIS":"35891.692","PERIAPSIS":"35878.126","OBJECT_TYPE":"PAYLOAD","RCS_SIZE":"LARGE","COUNTRY_CODE":"INDO","LAUNCH_DATE":"2000-02-12","SITE":"TTMTR","DECAY_DATE":null,"FILE":"3684614","GP_ID":"219761045","TLE_LINE0":"0 GARUDA 1","TLE_LINE1":"1 26089U 00011A   22342.05813459 -.00000126  00000-0  00000-0 0  9995","TLE_LINE2":"2 26089   6.4533  79.6718 0001605 179.4197 189.2938  0.99922111 28808"},{"CCSDS_OMM_VERS":"2.0","COMMENT":"GENERATED VIA SPACE-TRACK.ORG API","CREATION_DATE":"2022-12-08T18:21:51","ORIGINATOR":"18 SPCS","OBJECT_NAME":"HISPASAT 1C","OBJECT_ID":"2000-007A","CENTER_NAME":"EARTH","REF_FRAME":"TEME","TIME_SYSTEM":"UTC","MEAN_ELEMENT_THEORY":"SGP4","EPOCH":"2022-12-08T12:35:16.344672","MEAN_MOTION":"0.99199787","ECCENTRICITY":"0.00055860","INCLINATION":"5.1919","RA_OF_ASC_NODE":"77.0173","ARG_OF_PERICENTER":"171.4782","MEAN_ANOMALY":"89.7863","EPHEMERIS_TYPE":"0","CLASSIFICATION_TYPE":"U","NORAD_CAT_ID":"26071","ELEMENT_SET_NO":"999","REV_AT_EPOCH":"3452","BSTAR":"0.00000000000000","MEAN_MOTION_DOT":"0.00000080","MEAN_MOTION_DDOT":"0.0000000000000","SEMIMAJOR_AXIS":"42467.955","PERIOD":"1451.616","APOAPSIS":"36113.543","PERIAPSIS":"36066.097","OBJECT_TYPE":"PAYLOAD","RCS_SIZE":"LARGE","COUNTRY_CODE":"SPN","LAUNCH_DATE":"2000-02-03","SITE":"AFETR","DECAY_DATE":null,"FILE":"3684614","GP_ID":"219759800","TLE_LINE0":"0 HISPASAT 1C","TLE_LINE1":"1 26071U 00007A   22342.52449473  .00000080  00000-0  00000-0 0  9992","TLE_LINE2":"2 26071   5.1919  77.0173 0005586 171.4782  89.7863  0.99199787 34526"},{"CCSDS_OMM_VERS":"2.0","COMMENT":"GENERATED VIA SPACE-TRACK.ORG API","CREATION_DATE":"2022-12-08T18:21:51","ORIGINATOR":"18 SPCS","OBJECT_NAME":"GALAXY 10R","OBJECT_ID":"2000-002A","CENTER_NAME":"EARTH","REF_FRAME":"TEME","TIME_SYSTEM":"UTC","MEAN_ELEMENT_THEORY":"SGP4","EPOCH":"2022-12-08T13:50:44.829600","MEAN_MOTION":"0.99637318","ECCENTRICITY":"0.00047070","INCLINATION":"10.1338","RA_OF_ASC_NODE":"40.0619","ARG_OF_PERICENTER":"130.2754","MEAN_ANOMALY":"216.3863","EPHEMERIS_TYPE":"0","CLASSIFICATION_TYPE":"U","NORAD_CAT_ID":"26056","ELEMENT_SET_NO":"999","REV_AT_EPOCH":"8350","BSTAR":"0.00000000000000","MEAN_MOTION_DOT":"-0.00000198","MEAN_MOTION_DDOT":"0.0000000000000","SEMIMAJOR_AXIS":"42343.539","PERIOD":"1445.242","APOAPSIS":"35985.335","PERIAPSIS":"35945.473","OBJECT_TYPE":"PAYLOAD","RCS_SIZE":"LARGE","COUNTRY_CODE":"US","LAUNCH_DATE":"2000-01-25","SITE":"FRGUI","DECAY_DATE":null,"FILE":"3684614","GP_ID":"219761042","TLE_LINE0":"0 GALAXY 10R","TLE_LINE1":"1 26056U 00002A   22342.57690775 -.00000198  00000-0  00000-0 0  9999","TLE_LINE2":"2 26056  10.1338  40.0619 0004707 130.2754 216.3863  0.99637318 83508"},{"CCSDS_OMM_VERS":"2.0","COMMENT":"GENERATED VIA SPACE-TRACK.ORG API","CREATION_DATE":"2022-12-08T18:21:51","ORIGINATOR":"18 SPCS","OBJECT_NAME":"USA 148","OBJECT_ID":"2000-001A","CENTER_NAME":"EARTH","REF_FRAME":"TEME","TIME_SYSTEM":"UTC","MEAN_ELEMENT_THEORY":"SGP4","EPOCH":"2022-12-08T10:44:58.700832","MEAN_MOTION":"1.00271704","ECCENTRICITY":"0.00024250","INCLINATION":"9.8136","RA_OF_ASC_NODE":"41.3538","ARG_OF_PERICENTER":"214.7927","MEAN_ANOMALY":"162.3897","EPHEMERIS_TYPE":"0","CLASSIFICATION_TYPE":"U","NORAD_CAT_ID":"26052","ELEMENT_SET_NO":"999","REV_AT_EPOCH":"2006","BSTAR":"0.00000000000000","MEAN_MOTION_DOT":"0.00000045","MEAN_MOTION_DDOT":"0.0000000000000","SEMIMAJOR_AXIS":"42164.755","PERIOD":"1436.098","APOAPSIS":"35796.845","PERIAPSIS":"35776.395","OBJECT_TYPE":"PAYLOAD","RCS_SIZE":"LARGE","COUNTRY_CODE":"US","LAUNCH_DATE":"2000-01-21","SITE":"AFETR","DECAY_DATE":null,"FILE":"3684614","GP_ID":"219759298","TLE_LINE0":"0 USA 148","TLE_LINE1":"1 26052U 00001A   22342.44790163  .00000045  00000-0  00000-0 0  9992","TLE_LINE2":"2 26052   9.8136  41.3538 0002425 214.7927 162.3897  1.00271704 20069"},{"CCSDS_OMM_VERS":"2.0","COMMENT":"GENERATED VIA SPACE-TRACK.ORG API","CREATION_DATE":"2022-12-08T18:21:51","ORIGINATOR":"18 SPCS","OBJECT_NAME":"GALAXY 11","OBJECT_ID":"1999-071A","CENTER_NAME":"EARTH","REF_FRAME":"TEME","TIME_SYSTEM":"UTC","MEAN_ELEMENT_THEORY":"SGP4","EPOCH":"2022-12-08T11:09:57.381408","MEAN_MOTION":"1.00271817","ECCENTRICITY":"0.00021770","INCLINATION":"3.4616","RA_OF_ASC_NODE":"85.4468","ARG_OF_PERICENTER":"216.5462","MEAN_ANOMALY":"209.6010","EPHEMERIS_TYPE":"0","CLASSIFICATION_TYPE":"U","NORAD_CAT_ID":"26038","ELEMENT_SET_NO":"999","REV_AT_EPOCH":"8418","BSTAR":"0.00000000000000","MEAN_MOTION_DOT":"-0.00000149","MEAN_MOTION_DDOT":"0.0000000000000","SEMIMAJOR_AXIS":"42164.723","PERIOD":"1436.096","APOAPSIS":"35795.767","PERIAPSIS":"35777.409","OBJECT_TYPE":"PAYLOAD","RCS_SIZE":"LARGE","COUNTRY_CODE":"US","LAUNCH_DATE":"1999-12-22","SITE":"FRGUI","DECAY_DATE":null,"FILE":"3684614","GP_ID":"219760798","TLE_LINE0":"0 GALAXY 11","TLE_LINE1":"1 26038U 99071A   22342.46524747 -.00000149  00000-0  00000-0 0  9992","TLE_LINE2":"2 26038   3.4616  85.4468 0002177 216.5462 209.6010  1.00271817 84185"},{"CCSDS_OMM_VERS":"2.0","COMMENT":"GENERATED VIA SPACE-TRACK.ORG API","CREATION_DATE":"2022-12-08T18:21:51","ORIGINATOR":"18 SPCS","OBJECT_NAME":"UFO 10 (USA 146)","OBJECT_ID":"1999-063A","CENTER_NAME":"EARTH","REF_FRAME":"TEME","TIME_SYSTEM":"UTC","MEAN_ELEMENT_THEORY":"SGP4","EPOCH":"2022-12-08T09:46:21.699840","MEAN_MOTION":"1.00269411","ECCENTRICITY":"0.00041570","INCLINATION":"8.9253","RA_OF_ASC_NODE":"32.8402","ARG_OF_PERICENTER":"207.5029","MEAN_ANOMALY":"320.4834","EPHEMERIS_TYPE":"0","CLASSIFICATION_TYPE":"U","NORAD_CAT_ID":"25967","ELEMENT_SET_NO":"999","REV_AT_EPOCH":"8444","BSTAR":"0.00000000000000","MEAN_MOTION_DOT":"-0.00000179","MEAN_MOTION_DDOT":"0.0000000000000","SEMIMAJOR_AXIS":"42165.397","PERIOD":"1436.131","APOAPSIS":"35804.791","PERIAPSIS":"35769.734","OBJECT_TYPE":"PAYLOAD","RCS_SIZE":"LARGE","COUNTRY_CODE":"US","LAUNCH_DATE":"1999-11-23","SITE":"AFETR","DECAY_DATE":null,"FILE":"3684614","GP_ID":"219759290","TLE_LINE0":"0 UFO 10 (USA 146)","TLE_LINE1":"1 25967U 99063A   22342.40719560 -.00000179  00000-0  00000-0 0  9999","TLE_LINE2":"2 25967   8.9253  32.8402 0004157 207.5029 320.4834  1.00269411 84447"},{"CCSDS_OMM_VERS":"2.0","COMMENT":"GENERATED VIA SPACE-TRACK.ORG API","CREATION_DATE":"2022-12-08T18:21:51","ORIGINATOR":"18 SPCS","OBJECT_NAME":"AMC-4 (GE-4)","OBJECT_ID":"1999-060A","CENTER_NAME":"EARTH","REF_FRAME":"TEME","TIME_SYSTEM":"UTC","MEAN_ELEMENT_THEORY":"SGP4","EPOCH":"2022-12-08T12:41:12.456960","MEAN_MOTION":"1.00271624","ECCENTRICITY":"0.00033080","INCLINATION":"1.9591","RA_OF_ASC_NODE":"89.8349","ARG_OF_PERICENTER":"171.2930","MEAN_ANOMALY":"231.5452","EPHEMERIS_TYPE":"0","CLASSIFICATION_TYPE":"U","NORAD_CAT_ID":"25954","ELEMENT_SET_NO":"999","REV_AT_EPOCH":"3065","BSTAR":"0.00000000000000","MEAN_MOTION_DOT":"0.00000102","MEAN_MOTION_DDOT":"0.0000000000000","SEMIMAJOR_AXIS":"42164.777","PERIOD":"1436.099","APOAPSIS":"35800.590","PERIAPSIS":"35772.694","OBJECT_TYPE":"PAYLOAD","RCS_SIZE":"LARGE","COUNTRY_CODE":"SES","LAUNCH_DATE":"1999-11-13","SITE":"FRGUI","DECAY_DATE":null,"FILE":"3684614","GP_ID":"219761033","TLE_LINE0":"0 AMC-4 (GE-4)","TLE_LINE1":"1 25954U 99060A   22342.52861640  .00000102  00000-0  00000-0 0  9997","TLE_LINE2":"2 25954   1.9591  89.8349 0003308 171.2930 231.5452  1.00271624 30659"},{"CCSDS_OMM_VERS":"2.0","COMMENT":"GENERATED VIA SPACE-TRACK.ORG API","CREATION_DATE":"2022-12-08T18:21:51","ORIGINATOR":"18 SPCS","OBJECT_NAME":"ABS 6 (LMI 1)","OBJECT_ID":"1999-053A","CENTER_NAME":"EARTH","REF_FRAME":"TEME","TIME_SYSTEM":"UTC","MEAN_ELEMENT_THEORY":"SGP4","EPOCH":"2022-12-08T13:10:42.839616","MEAN_MOTION":"1.00270277","ECCENTRICITY":"0.00027130","INCLINATION":"0.0300","RA_OF_ASC_NODE":"48.3283","ARG_OF_PERICENTER":"221.5138","MEAN_ANOMALY":"164.1233","EPHEMERIS_TYPE":"0","CLASSIFICATION_TYPE":"U","NORAD_CAT_ID":"25924","ELEMENT_SET_NO":"999","REV_AT_EPOCH":"8494","BSTAR":"0.00000000000000","MEAN_MOTION_DOT":"-0.00000105","MEAN_MOTION_DDOT":"0.0000000000000","SEMIMAJOR_AXIS":"42165.155","PERIOD":"1436.119","APOAPSIS":"35798.459","PERIAPSIS":"35775.580","OBJECT_TYPE":"PAYLOAD","RCS_SIZE":"LARGE","COUNTRY_CODE":"PRC","LAUNCH_DATE":"1999-09-26","SITE":"TTMTR","DECAY_DATE":null,"FILE":"3684614","GP_ID":"219760788","TLE_LINE0":"0 ABS 6 (LMI 1)","TLE_LINE1":"1 25924U 99053A   22342.54910694 -.00000105  00000-0  00000-0 0  9996","TLE_LINE2":"2 25924   0.0300  48.3283 0002713 221.5138 164.1233  1.00270277 84941"}]